#dP2024  1 31  0  0  0.00000000     289 ORBIT ITRF  BHN ESOC                    
## 2299 259200.00000000   300.00000000 60340 0.0000000000000                    
+  118   G13G22G21G07G05G20G31G17G15G16G29G12G19G02G25G01G30                    
+        G24G06G09G03G32G26G08G10G04G18G23G14G11G28R09R11R22                    
+        R25R20R19R13R01R08R03R07R02R17R14R18R21R05R15R12R04                    
+        R24R16E11E12E19E18E14E26E24E30E08E09E02E07E03E04E05                    
+        E21E25E27E31E36E13E15E33E34E10C11C12C14C19C20C27C28                    
+        C22C21C29C30C23C24C26C25C32C33C35C34C36C37C46C45C44                    
+        C43C41C42C06C07C08C09C10C13C16C38C39C40J02J03J04  0                    
++         5  4  5  5  4  5  4  5  4  4  5  5  5  5  4  4  5                    
++         5  4  4  4  4  4  4  4  5  5  5  5  5  4  5  5  5                    
++         6  8  6  5  6  5  5  5  6  6  5  5  4  5  5  5  4                    
++         5  6  5  5  4  4  5  5  5  5  5  5  5  4  5  4  5                    
++         5  4  5  5  4  5  4  4  4  5  5  5  5  4  5  4  4                    
++         4  5  6  4  5  4  5  5  5  5  5  5  5  5  5  5  5                    
++         5  5  5  6  6  7  6  6  6  6  8  8  7  6  5  6  0                    
%c M  cc GPS ccc cccc cccc cccc cccc ccccc ccccc ccccc ccccc                    
%c cc cc ccc ccc cccc cccc cccc cccc ccccc ccccc ccccc ccccc                    
%f  0.0000000  0.000000000  0.00000000000  0.000000000000000                    
%f  0.0000000  0.000000000  0.00000000000  0.000000000000000                    
%i    0    0    0    0      0      0      0      0         0                    
%i    0    0    0    0      0      0      0      0         0                    
/* CCCCCCCCCCCCCCCCCCCCCCCCCCCCCCCCCCCCCCCCCCCCCCCCCCCCCCCCCCCCCCCCCCCCCCCCCCCCC
/* CCCCCCCCCCCCCCCCCCCCCCCCCCCCCCCCCCCCCCCCCCCCCCCCCCCCCCCCCCCCCCCCCCCCCCCCCCCCC
/* CCCCCCCCCCCCCCCCCCCCCCCCCCCCCCCCCCCCCCCCCCCCCCCCCCCCCCCCCCCCCCCCCCCCCCCCCCCCC
/* PCV:IGS        OL/AL:EOT11A   NONE     YN ORB:CoN CLK:CoN                    
*  2024  1 31 12 10  0.00000000                                                 
PG13  12600.143521  13304.804217 -19508.176851    621.139824                    
PG22  -9839.133493  24651.110490   3498.983839     38.987002                    
PG21 -20879.447406 -16487.482873   5567.512125    136.575977                    
PG07 -14856.644591   5309.432890 -20938.513774    -50.686451                    
PG05   9505.662567  14706.722971 -20113.294630   -160.028238                    
PG20   2274.788868  24485.152273 -10190.305712    389.275755                    
PG31  -7091.536756 -22682.237991  11220.338028   -227.587642                    
PG17 -16527.322210  12891.715343  16828.101506    718.395064                    
PG15  21633.742767   5195.727029 -15146.572872    122.856777                    
PG16  -3365.530674 -19973.803304 -17265.715722   -372.748315                    
PG29  25955.214360  -4416.808852  -3941.700989   -607.833904                    
PG12  14728.943276   3855.141643  21473.075322   -473.355380                    
PG19  -6889.710143  14556.552909  20862.282135    434.150726                    
PG02 -21392.942061 -12610.732712  10263.871188   -492.655646                    
PG25  17051.397842  -8647.635244  17982.669740    487.104031                    
PG01 -19373.247659  -8212.580881  16075.548846    167.805043                    
PG30  -6716.718819  15623.476301 -20216.336373   -438.604922                    
PG24  21178.919907  14463.078228   7275.001493   -423.759115                    
PG06   1737.315474  20464.041720  16850.138577    424.961490                    
PG09 -24920.023969   7812.515076  -5094.154839     76.645158                    
PG03 -14680.723726  -2549.137366  21837.039049    162.774895                    
PG32  12369.704015 -14837.760276  18332.898832   -608.860208                    
PG26   1982.651418 -25205.767785  -7636.688900    195.030287                    
PG08 -21262.664187  -6866.215842 -14767.822252   -164.786516                    
PG10  10585.710398 -24118.811364  -1282.736456    -71.462797                    
PG04 -25560.100153  -2221.443623   7146.503265    279.988190                    
PG18  13572.088572  -6635.046895 -21842.679047   -545.021303                    
PG23  15621.894624 -16887.364359 -13086.097373    146.398365                    
PG14 -13490.321755  22213.479954  -4955.641350    313.336438                    
PG11  10695.733869  23332.561500   6950.378874   -559.608467                    
PG28    360.088108 -19311.534154  18210.073721   -115.737239                    
PR09 -10854.636379   5862.220626 -22303.297334    167.388413                    
PR11   1924.898105  25252.728477   2985.296070     35.840771                    
PR22  10444.883046  16017.631253  16902.499607    105.792926                    
PR25  -6269.915770   8934.323236  23062.961478     73.797807                    
PR20 -19819.453669  -4426.552159  15478.951667   -107.594849                    
PR19 -19977.820964 -15135.550105  -4742.915219   -264.092443                    
PR13  10906.819464  -3165.026216  22818.160890    -43.892960                    
PR01  15765.492769   1381.368622 -20004.379657     75.922747                    
PR08  -1403.785374  12768.612483 -21981.949086    -74.243666                    
PR03  16500.806301 -15820.765207  11301.675805     93.614619                    
PR07 -16047.115871  15855.682277 -11915.665931     74.753641                    
PR02  22722.126994  -9775.207348  -6035.864437    -22.467760                    
PR17   5892.111701  -8819.164155 -23186.553866     57.213284                    
PR14   5709.384159 -21423.545005  12632.305881     25.977962                    
PR18 -10206.692307 -15298.849634 -17684.139069    124.956816                    
PR21  -5546.196492   8931.193252  23244.581954    -73.281470                    
PR05 -14213.859042  -3074.465740  20977.586186    126.154891                    
PR15  -2435.604944 -25001.582709  -4432.369085     82.589139                    
PR12   9443.226279  13792.302772  19291.419823     36.205914                    
PR04   1698.155974 -12752.481191  22054.332198    221.390682                    
PR24  19850.844260   2947.246539 -15730.744950    -42.067086                    
PR16  -9312.163012 -14041.993211 -19162.255583     22.880158                    
PE11 -21645.333548  -9135.003113  18013.787081   3268.203366                    
PE12 -18102.843747 -23433.927176    224.947919   -886.292206                    
PE19   7751.567182 -16981.114445  22978.125473   -705.871039                    
PE18   9996.497473 -19647.014211 -22363.238248    273.338633                    
PE14    295.161899  16093.210325  19020.339931     26.103368                    
PE26  12504.154055 -10236.089306 -24789.258738    355.189273                    
PE24 -17985.055274    631.563031 -23528.237171   -572.328378                    
PE30   7736.706566  19256.173117  21097.272403   -868.935293                    
PE08  16433.714195  12565.881230 -21173.662424   -216.543371                    
PE09 -28891.616829   -623.036074   6385.355673   -319.238965                    
PE02  -7257.532454  28039.564566   6153.768211     99.561574                    
PE07  28933.133615    583.371529  -6232.234394   -101.294983                    
PE03  -5066.832565  17246.237234 -23519.130987    -90.672439                    
PE04 -17091.313977 -12383.669156  20760.785900   -316.378280                    
PE05 -23983.941326  11993.579294 -12533.161261   4715.577950                    
PE21  17473.869626 -20843.127340  11660.869809   -576.637170                    
PE25 -17608.772268  20552.904815 -12003.924810      0.249994                    
PE27  18024.780614  -1133.087060  23442.931591   -263.004193                    
PE31  -7955.527834 -18986.357263 -21266.912399    -14.954834                    
PE36 -12854.124946   9523.802830  24913.137162   -179.424229                    
PE13  21712.261732   9783.685417 -17561.894730    -20.045490                    
PE15  17831.284194  23616.547769    347.921932    -83.192350                    
PE33  -3088.695038 -23173.231940 -18147.350930      6.856483                    
PE34   3610.972549  23400.011303  17767.986902    -92.027853                    
PE10 -21489.990069 -18092.475727   9330.058181   -598.344954                    
PC11  21722.498300  14978.550523   9165.553573    386.309852                    
PC12   4060.758128  17010.796792  21787.071722    781.666439                    
PC14  12375.807676   9910.700995 -22952.121681     86.433980                    
PC19 -19172.538074  -1516.673787  20239.320079   -931.596138                    
PC20  -5064.754593 -15712.564566  22516.629577   -117.623426                    
PC27   5817.979694 -14906.751774 -22879.657006    264.504270                    
PC28  21462.064570  -5024.047841 -17106.040435    200.951561                    
PC22 -23099.783058  14378.990432   6143.112843   -127.206470                    
PC21 -13466.497514  21652.999038 -11295.425340   -963.146638                    
PC29 -26456.086418  -8857.449524   -751.002290    235.478386                    
PC30 -13884.314836 -17037.107913 -17217.063112    -20.094799                    
PC23  15004.384744  -7445.153924  22313.064689   -784.895697                    
PC24   7856.538160  26522.021870   3778.756486    840.995714                    
PC26  -4039.094757  24568.825573 -12660.069201   -242.549319                    
PC25  16499.981098  12499.959624  18709.313048    314.883399                    
PC32  13357.947097 -21786.209275  11242.069769   -560.887851                    
PC33  19159.049396   1455.532952 -20236.866911   -945.714280                    
PC35 -21362.113551   5814.633041  17002.077722    444.548650                    
PC34  15309.053047  16792.653802  16171.306273    359.085519                    
PC36 -16095.934118 -13426.421459 -18404.803841    -32.136356                    
PC37   4924.291600 -24159.354217  13044.852420   -933.723642                    
PC46  -8380.573605 -26165.873241  -4767.588050   -120.083150                    
PC45 -14810.650333   7744.775014 -22361.896572    -67.038240                    
PC44  -5532.820868  15162.663531  22752.728783    370.352838                    
PC43  26192.502099   9448.595169   1623.547680     58.552517                    
PC41  23161.134423 -13970.796832  -6831.781226   -885.006217                    
PC42   3589.157756  16684.587336 -22028.266554   -459.268784                    
PC06  -3416.445191  26827.479001 -32244.284546     80.863503                    
PC07 -16498.364333  31772.576190  22201.360733   -725.855685                    
PC08  -8050.625082  40902.241590   7030.748618     73.279257                    
PC09   5762.026720  30784.176195 -27490.782635   -426.606617                    
PC10  -8938.256826  31653.568518  26434.308154    104.095687                    
PC13  -2445.382733  42227.401197   -959.932455    412.986978                    
PC16  -4398.667391  25591.878437 -32875.559762   -312.613502                    
PC38 -12081.771141  37716.038998  14709.641268    133.867321                    
PC39 -10783.679120  21635.277260 -34479.693957     -6.931851                    
PC40 -24253.094135  26113.080015  22308.700121    -54.470479                    
PJ02 -26934.721195  31012.079237  -4836.986665     -1.588499                    
PJ03 -25781.527625  22925.156207  29357.329623     -0.207677                    
PJ04 -31392.948394  27500.167141   -655.337169     78.690591                    
EOF                                                                             
